start=new Date('2023-03-14T00:00:00.000Z').valueOf();
sats=[{"INCLINATION":"53.2176","FILE":"3859631","SEMIMAJOR_AXIS":"6917.875","REF_FRAME":"TEME","MEAN_ANOMALY":"291.4728","SITE":"AFETR","ARG_OF_PERICENTER":"68.6446","RA_OF_ASC_NODE":"45.1966","MEAN_ELEMENT_THEORY":"SGP4","CENTER_NAME":"EARTH","ECCENTRICITY":"0.00017030","REV_AT_EPOCH":"3638","APOAPSIS":"540.918","DECAY_DATE":null,"OBJECT_ID":"2022-086AF","TIME_SYSTEM":"UTC","OBJECT_TYPE":"PAYLOAD","OBJECT_NAME":"STARLINK-4069","RCS_SIZE":"LARGE","COUNTRY_CODE":"US","PERIOD":"95.437","LAUNCH_DATE":"2022-07-24","GP_ID":"228034674","BSTAR":"0.00088406000000","NORAD_CAT_ID":"53271","MEAN_MOTION":"15.08841829","TLE_LINE1":"1 53271U 22086AF  23072.93432885  .00013810  00000-0  88406-3 0  9994","PERIAPSIS":"538.562","MEAN_MOTION_DDOT":"0.0000000000000","EPOCH":"2023-03-13T22:25:26.012640","CLASSIFICATION_TYPE":"U","TLE_LINE2":"2 53271  53.2176  45.1966 0001703  68.6446 291.4728 15.08841829 36389","EPHEMERIS_TYPE":"0","ELEMENT_SET_NO":"999","MEAN_MOTION_DOT":"0.00013810"},{"TIME_SYSTEM":"UTC","DECAY_DATE":null,"OBJECT_ID":"2022-086AG","APOAPSIS":"541.061","ECCENTRICITY":"0.00019000","REV_AT_EPOCH":"3619","ARG_OF_PERICENTER":"77.9905","RA_OF_ASC_NODE":"45.4422","MEAN_ELEMENT_THEORY":"SGP4","CENTER_NAME":"EARTH","REF_FRAME":"TEME","SEMIMAJOR_AXIS":"6917.882","MEAN_ANOMALY":"282.1300","SITE":"AFETR","FILE":"3859518","INCLINATION":"53.2196","LAUNCH_DATE":"2022-07-24","PERIOD":"95.438","OBJECT_NAME":"STARLINK-4122","RCS_SIZE":"LARGE","COUNTRY_CODE":"US","OBJECT_TYPE":"PAYLOAD","PERIAPSIS":"538.432","MEAN_MOTION":"15.08839589","TLE_LINE1":"1 53272U 22086AG  23072.87912895  .00001157  00000-0  90793-4 0  9996","NORAD_CAT_ID":"53272","GP_ID":"228009637","BSTAR":"0.00009079300000","ELEMENT_SET_NO":"999","MEAN_MOTION_DOT":"0.00001157","EPHEMERIS_TYPE":"0","TLE_LINE2":"2 53272  53.2196  45.4422 0001900  77.9905 282.1300 15.08839589 36196","EPOCH":"2023-03-13T21:05:56.741280","CLASSIFICATION_TYPE":"U","MEAN_MOTION_DDOT":"0.0000000000000"},{"LAUNCH_DATE":"2022-07-24","OBJECT_TYPE":"PAYLOAD","PERIOD":"95.436","RCS_SIZE":"LARGE","COUNTRY_CODE":"US","OBJECT_NAME":"STARLINK-4051","APOAPSIS":"540.699","REV_AT_EPOCH":"3628","ECCENTRICITY":"0.00014760","TIME_SYSTEM":"UTC","DECAY_DATE":null,"OBJECT_ID":"2022-086AH","INCLINATION":"53.2160","FILE":"3859425","CENTER_NAME":"EARTH","ARG_OF_PERICENTER":"78.4471","RA_OF_ASC_NODE":"47.9106","MEAN_ELEMENT_THEORY":"SGP4","SITE":"AFETR","SEMIMAJOR_AXIS":"6917.813","REF_FRAME":"TEME","MEAN_ANOMALY":"281.6686","EPHEMERIS_TYPE":"0","MEAN_MOTION_DOT":"0.00012398","ELEMENT_SET_NO":"999","CLASSIFICATION_TYPE":"U","EPOCH":"2023-03-13T07:56:21.299712","MEAN_MOTION_DDOT":"0.0000000000000","TLE_LINE2":"2 53273  53.2160  47.9106 0001476  78.4471 281.6686 15.08861950 36284","TLE_LINE1":"1 53273U 22086AH  23072.33080208  .00012398  00000-0  79524-3 0  9999","MEAN_MOTION":"15.08861950","PERIAPSIS":"538.657","NORAD_CAT_ID":"53273","BSTAR":"0.00079524000000","GP_ID":"228004288"},{"APOAPSIS":"540.989","ECCENTRICITY":"0.00018260","REV_AT_EPOCH":"3638","TIME_SYSTEM":"UTC","OBJECT_ID":"2022-086AJ","DECAY_DATE":null,"FILE":"3859631","INCLINATION":"53.2193","ARG_OF_PERICENTER":"96.1439","RA_OF_ASC_NODE":"45.1800","MEAN_ELEMENT_THEORY":"SGP4","CENTER_NAME":"EARTH","MEAN_ANOMALY":"263.9762","SEMIMAJOR_AXIS":"6917.861","REF_FRAME":"TEME","SITE":"AFETR","LAUNCH_DATE":"2022-07-24","OBJECT_TYPE":"PAYLOAD","PERIOD":"95.437","OBJECT_NAME":"STARLINK-4050","RCS_SIZE":"LARGE","COUNTRY_CODE":"US","MEAN_MOTION":"15.08846443","TLE_LINE1":"1 53274U 22086AJ  23072.93801149  .00017806  00000-0  11338-2 0  9998","PERIAPSIS":"538.462","NORAD_CAT_ID":"53274","GP_ID":"228034424","BSTAR":"0.00113380000000","EPHEMERIS_TYPE":"0","ELEMENT_SET_NO":"999","MEAN_MOTION_DOT":"0.00017806","EPOCH":"2023-03-13T22:30:44.192736","CLASSIFICATION_TYPE":"U","MEAN_MOTION_DDOT":"0.0000000000000","TLE_LINE2":"2 53274  53.2193  45.1800 0001826  96.1439 263.9762 15.08846443 36381"},{"EPHEMERIS_TYPE":"0","ELEMENT_SET_NO":"999","MEAN_MOTION_DOT":"0.00018581","CLASSIFICATION_TYPE":"U","EPOCH":"2023-03-13T07:51:03.320064","MEAN_MOTION_DDOT":"0.0000000000000","TLE_LINE2":"2 53275  53.2164  47.9236 0001756 106.8707 253.2478 15.08860101 36116","MEAN_MOTION":"15.08860101","TLE_LINE1":"1 53275U 22086AK  23072.32712176  .00018581  00000-0  11818-2 0  9997","PERIAPSIS":"538.469","NORAD_CAT_ID":"53275","BSTAR":"0.00118180000000","GP_ID":"228009139","LAUNCH_DATE":"2022-07-24","OBJECT_TYPE":"PAYLOAD","PERIOD":"95.436","OBJECT_NAME":"STARLINK-4179","COUNTRY_CODE":"US","RCS_SIZE":"LARGE","APOAPSIS":"540.899","ECCENTRICITY":"0.00017560","REV_AT_EPOCH":"3611","TIME_SYSTEM":"UTC","OBJECT_ID":"2022-086AK","DECAY_DATE":null,"INCLINATION":"53.2164","FILE":"3859518","MEAN_ELEMENT_THEORY":"SGP4","ARG_OF_PERICENTER":"106.8707","RA_OF_ASC_NODE":"47.9236","CENTER_NAME":"EARTH","REF_FRAME":"TEME","SEMIMAJOR_AXIS":"6917.819","MEAN_ANOMALY":"253.2478","SITE":"AFETR"},{"SITE":"AFETR","SEMIMAJOR_AXIS":"6917.849","MEAN_ANOMALY":"289.0816","REF_FRAME":"TEME","CENTER_NAME":"EARTH","ARG_OF_PERICENTER":"71.0346","RA_OF_ASC_NODE":"47.8923","MEAN_ELEMENT_THEORY":"SGP4","FILE":"3859425","INCLINATION":"53.2167","DECAY_DATE":null,"OBJECT_ID":"2022-086AL","TIME_SYSTEM":"UTC","REV_AT_EPOCH":"3628","ECCENTRICITY":"0.00015680","APOAPSIS":"540.799","COUNTRY_CODE":"US","RCS_SIZE":"LARGE","OBJECT_NAME":"STARLINK-4174","PERIOD":"95.437","OBJECT_TYPE":"PAYLOAD","LAUNCH_DATE":"2022-07-24","GP_ID":"228004045","BSTAR":"0.00051244000000","NORAD_CAT_ID":"53276","PERIAPSIS":"538.630","TLE_LINE1":"1 53276U 22086AL  23072.33449064  .00007879  00000-0  51244-3 0  9998","MEAN_MOTION":"15.08850152","TLE_LINE2":"2 53276  53.2167  47.8923 0001568  71.0346 289.0816 15.08850152 36281","MEAN_MOTION_DDOT":"0.0000000000000","EPOCH":"2023-03-13T08:01:39.991296","CLASSIFICATION_TYPE":"U","MEAN_MOTION_DOT":"0.00007879","ELEMENT_SET_NO":"999","EPHEMERIS_TYPE":"0"},{"GP_ID":"228034173","BSTAR":"-0.00005922100000","NORAD_CAT_ID":"53277","PERIAPSIS":"539.026","TLE_LINE1":"1 53277U 22086AM  23072.91594207 -.00001230  00000-0 -59221-4 0  9994","MEAN_MOTION":"15.08822680","TLE_LINE2":"2 53277  53.2187  45.3100 0001116  86.9166 273.1954 15.08822680 36370","MEAN_MOTION_DDOT":"0.0000000000000","EPOCH":"2023-03-13T21:58:57.394848","CLASSIFICATION_TYPE":"U","MEAN_MOTION_DOT":"-0.00001230","ELEMENT_SET_NO":"999","EPHEMERIS_TYPE":"0","SITE":"AFETR","SEMIMAJOR_AXIS":"6917.933","MEAN_ANOMALY":"273.1954","REF_FRAME":"TEME","CENTER_NAME":"EARTH","RA_OF_ASC_NODE":"45.3100","ARG_OF_PERICENTER":"86.9166","MEAN_ELEMENT_THEORY":"SGP4","INCLINATION":"53.2187","FILE":"3859631","DECAY_DATE":null,"OBJECT_ID":"2022-086AM","TIME_SYSTEM":"UTC","REV_AT_EPOCH":"3637","ECCENTRICITY":"0.00011160","APOAPSIS":"540.570","RCS_SIZE":"LARGE","COUNTRY_CODE":"US","OBJECT_NAME":"STARLINK-4178","PERIOD":"95.439","OBJECT_TYPE":"PAYLOAD","LAUNCH_DATE":"2022-07-24"},{"EPHEMERIS_TYPE":"0","ELEMENT_SET_NO":"999","MEAN_MOTION_DOT":"0.00003338","EPOCH":"2023-03-13T22:04:14.227968","CLASSIFICATION_TYPE":"U","MEAN_MOTION_DDOT":"0.0000000000000","TLE_LINE2":"2 53278  53.2155  45.2665 0001184  87.6112 272.5016 15.08837488 36379","MEAN_MOTION":"15.08837488","TLE_LINE1":"1 53278U 22086AN  23072.91960912  .00003338  00000-0  22772-3 0  9994","PERIAPSIS":"538.934","NORAD_CAT_ID":"53278","GP_ID":"228034924","BSTAR":"0.00022772000000","LAUNCH_DATE":"2022-07-24","OBJECT_TYPE":"PAYLOAD","PERIOD":"95.438","OBJECT_NAME":"STARLINK-4180","COUNTRY_CODE":"US","RCS_SIZE":"LARGE","APOAPSIS":"540.572","ECCENTRICITY":"0.00011840","REV_AT_EPOCH":"3637","TIME_SYSTEM":"UTC","DECAY_DATE":null,"OBJECT_ID":"2022-086AN","INCLINATION":"53.2155","FILE":"3859631","ARG_OF_PERICENTER":"87.6112","RA_OF_ASC_NODE":"45.2665","MEAN_ELEMENT_THEORY":"SGP4","CENTER_NAME":"EARTH","SEMIMAJOR_AXIS":"6917.888","MEAN_ANOMALY":"272.5016","REF_FRAME":"TEME","SITE":"AFETR"},{"MEAN_MOTION_DOT":"0.00002237","ELEMENT_SET_NO":"999","EPHEMERIS_TYPE":"0","TLE_LINE2":"2 53280  53.2195   3.3094 0001319 106.5042 253.6095 15.08860944 36909","MEAN_MOTION_DDOT":"0.0000000000000","EPOCH":"2023-03-13T04:29:00.944736","CLASSIFICATION_TYPE":"U","PERIAPSIS":"538.769","TLE_LINE1":"1 53280U 22086AQ  23072.18681649  .00002237  00000-0  15848-3 0  9996","MEAN_MOTION":"15.08860944","BSTAR":"0.00015848000000","GP_ID":"228003296","NORAD_CAT_ID":"53280","LAUNCH_DATE":"2022-07-24","RCS_SIZE":"LARGE","COUNTRY_CODE":"US","OBJECT_NAME":"STARLINK-4169","PERIOD":"95.436","OBJECT_TYPE":"PAYLOAD","OBJECT_ID":"2022-086AQ","DECAY_DATE":null,"TIME_SYSTEM":"UTC","REV_AT_EPOCH":"3690","ECCENTRICITY":"0.00013190","APOAPSIS":"540.594","SITE":"AFETR","SEMIMAJOR_AXIS":"6917.816","MEAN_ANOMALY":"253.6095","REF_FRAME":"TEME","CENTER_NAME":"EARTH","RA_OF_ASC_NODE":"3.3094","ARG_OF_PERICENTER":"106.5042","MEAN_ELEMENT_THEORY":"SGP4","FILE":"3859425","INCLINATION":"53.2195"},{"SITE":"AFETR","SEMIMAJOR_AXIS":"6917.873","REF_FRAME":"TEME","MEAN_ANOMALY":"318.8640","CENTER_NAME":"EARTH","ARG_OF_PERICENTER":"105.2719","RA_OF_ASC_NODE":"45.2825","MEAN_ELEMENT_THEORY":"SGP4","FILE":"3859631","INCLINATION":"53.2179","DECAY_DATE":null,"OBJECT_ID":"2022-086AR","TIME_SYSTEM":"UTC","REV_AT_EPOCH":"130","ECCENTRICITY":"0.00018090","APOAPSIS":"540.989","RCS_SIZE":"LARGE","COUNTRY_CODE":"US","OBJECT_NAME":"STARLINK-4182","PERIOD":"95.437","OBJECT_TYPE":"PAYLOAD","LAUNCH_DATE":"2022-07-24","GP_ID":"228033424","BSTAR":"0.00352540000000","NORAD_CAT_ID":"53281","PERIAPSIS":"538.487","TLE_LINE1":"1 53281U 22086AR  23072.91667824  .00056271  00000-0  35254-2 0  9996","MEAN_MOTION":"15.08842421","TLE_LINE2":"2 53281  53.2179  45.2825 0001809 105.2719 318.8640 15.08842421  1306","MEAN_MOTION_DDOT":"0.0000000000000","CLASSIFICATION_TYPE":"U","EPOCH":"2023-03-13T22:00:00.999936","MEAN_MOTION_DOT":"0.00056271","ELEMENT_SET_NO":"999","EPHEMERIS_TYPE":"0"}];
